[{"OBJECT_NAME":"STARLINK-30408","OBJECT_ID":"2023-138S","EPOCH":"2026-03-09T11:48:08.469216","MEAN_MOTION":15.26735277,"ECCENTRICITY":0.00017108,"INCLINATION":43.0015,"RA_OF_ASC_NODE":234.8161,"ARG_OF_PERICENTER":273.2949,"MEAN_ANOMALY":86.7706,"EPHEMERIS_TYPE":0,"CLASSIFICATION_TYPE":"U","NORAD_CAT_ID":57824,"ELEMENT_SET_NO":999,"REV_AT_EPOCH":13870,"BSTAR":-4.4950162e-5,"MEAN_MOTION_DOT":-1.465e-5,"MEAN_MOTION_DDOT":0},{"OBJECT_NAME":"GEOSCAN 6 (RS92S6)","OBJECT_ID":"2025-155D","EPOCH":"2026-03-09T21:52:39.201312","MEAN_MOTION":15.27985277,"ECCENTRICITY":0.00087677,"INCLINATION":97.4466,"RA_OF_ASC_NODE":37.2933,"ARG_OF_PERICENTER":153.7679,"MEAN_ANOMALY":206.4006,"EPHEMERIS_TYPE":0,"CLASSIFICATION_TYPE":"U","NORAD_CAT_ID":64879,"ELEMENT_SET_NO":999,"REV_AT_EPOCH":6559,"BSTAR":0.00053762354,"MEAN_MOTION_DOT":0.00014633,"MEAN_MOTION_DDOT":0}]
